NORAD_CAT_ID,OBJECT_NAME,OBJECT_TYPE,EPOCH,MEAN_MOTION,ECCENTRICITY,INCLINATION,RA_OF_ASC_NODE,ARG_OF_PERICENTER,MEAN_ANOMALY,BSTAR,MEAN_MOTION_DOT,MEAN_MOTION_DDOT,TLE_LINE0,TLE_LINE1,TLE_LINE2,SEMIMAJOR_AXIS,PERIOD,APOGEE,PERIGEE,DECAYED
56455.0,STARLINK-5987,PAYLOAD,2024-05-28 19:50:40,14.98333522,0.0003245,69.9994,342.9613,267.9202,92.1585,4.9756e-05,5.01e-06,0.0,0 STARLINK-5987,1 56455U 23064H   24149.82685910  .00000501  00000-0  49756-4 0  9990,2 56455  69.9994 342.9613 0003245 267.9202  92.1585 14.98333522 57904,6950.182,96.107,574.302,569.792,0.0
56455.0,STARLINK-5987,PAYLOAD,2024-05-28 23:02:56,14.98333903,0.0003246,69.9994,342.6246,268.1809,91.8978,4.7955e-05,4.79e-06,0.0,0 STARLINK-5987,1 56455U 23064H   24149.96037838  .00000479  00000-0  47955-4 0  9998,2 56455  69.9994 342.6246 0003246 268.1809  91.8978 14.98333903 58287,6950.181,96.107,574.302,569.79,0.0
56455.0,STARLINK-5987,PAYLOAD,2024-05-29 13:28:09,14.98332881,0.0003241,69.9993,341.1093,268.7264,91.3524,6.9931e-05,7.42e-06,0.0,0 STARLINK-5987,1 56455U 23064H   24150.56121769  .00000742  00000-0  69931-4 0  9994,2 56455  69.9993 341.1093 0003241 268.7264  91.3524 14.98332881 58013,6950.184,96.107,574.302,569.796,0.0
56455.0,STARLINK-5987,PAYLOAD,2024-05-29 21:28:49,14.98334152,0.0003247,69.9994,340.2677,268.4106,91.6681,7.6792e-05,8.23e-06,0.0,0 STARLINK-5987,1 56455U 23064H   24150.89501661  .00000823  00000-0  76792-4 0  9996,2 56455  69.9994 340.2677 0003247 268.4106  91.6681 14.98334152 58065,6950.18,96.107,574.302,569.788,0.0
56455.0,STARLINK-5987,PAYLOAD,2024-05-29 23:04:57,14.983346,0.0003244,69.9994,340.0994,268.2767,91.802,7.9763e-05,8.59e-06,0.0,0 STARLINK-5987,1 56455U 23064H   24150.96177608  .00000859  00000-0  79763-4 0  9994,2 56455  69.9994 340.0994 0003244 268.2767  91.8020 14.98334600 58431,6950.179,96.107,574.298,569.789,0.0
56455.0,STARLINK-5987,PAYLOAD,2024-05-30 13:30:09,14.98334676,0.0003218,69.9995,338.5845,267.4928,92.5862,9.6934e-05,1.064e-05,0.0,0 STARLINK-5987,1 56455U 23064H   24151.56261498  .00001064  00000-0  96934-4 0  9990,2 56455  69.9995 338.5845 0003218 267.4928  92.5862 14.98334676 58165,6950.178,96.107,574.28,569.807,0.0
56455.0,STARLINK-5987,PAYLOAD,2024-05-30 21:30:50,14.9833709,0.0003215,69.9993,337.7427,265.9461,94.133,0.00011512,1.281e-05,0.0,0 STARLINK-5987,1 56455U 23064H   24151.89641208  .00001281  00000-0  11512-3 0  9996,2 56455  69.9993 337.7427 0003215 265.9461  94.1330 14.98337090 58219,6950.171,96.107,574.27,569.801,0.0
56455.0,STARLINK-5987,PAYLOAD,2024-05-31 13:32:10,14.98333364,0.0003129,69.9994,336.0593,264.1479,95.9324,8.0153e-05,8.64e-06,0.0,0 STARLINK-5987,1 56455U 23064H   24152.56401399  .00000864  00000-0  80153-4 0  9990,2 56455  69.9994 336.0593 0003129 264.1479  95.9324 14.98333364 58672,6950.182,96.107,574.222,569.873,0.0
56455.0,STARLINK-5987,PAYLOAD,2024-05-31 21:32:51,14.98332946,0.0003168,69.9993,335.2174,269.8532,90.2264,6.1332e-05,6.39e-06,0.0,0 STARLINK-5987,1 56455U 23064H   24152.89781398  .00000639  00000-0  61332-4 0  9994,2 56455  69.9993 335.2174 0003168 269.8532  90.2264 14.98332946 58364,6950.184,96.107,574.251,569.847,0.0
56455.0,STARLINK-5987,PAYLOAD,2024-06-01 13:34:12,14.98328267,0.0003122,69.9991,333.5339,269.6828,90.3973,-1.2145e-05,-2.38e-06,0.0,0 STARLINK-5987,1 56455U 23064H   24153.56541907 -.00000238  00000-0 -12145-4 0  9994,2 56455  69.9991 333.5339 0003122 269.6828  90.3973 14.98328267 58822,6950.198,96.107,574.233,569.893,0.0
56455.0,STARLINK-5987,PAYLOAD,2024-06-02 12:00:04,14.98333091,0.0003285,69.999,331.1763,268.6317,91.4466,0.00011978,1.337e-05,0.0,0 STARLINK-5987,1 56455U 23064H   24154.50005255  .00001337  00000-0  11978-3 0  9991,2 56455  69.9990 331.1763 0003285 268.6317  91.4466 14.98333091 58963,6950.183,96.107,574.331,569.765,0.0
56455.0,STARLINK-5987,PAYLOAD,2024-06-02 21:36:52,14.98336767,0.0003269,69.999,330.1657,267.7452,92.3332,0.00010701,1.184e-05,0.0,0 STARLINK-5987,1 56455U 23064H   24154.90060949  .00001184  00000-0  10701-3 0  9999,2 56455  69.9990 330.1657 0003269 267.7452  92.3332 14.98336767 58668,6950.172,96.107,574.309,569.765,0.0
56455.0,STARLINK-5987,PAYLOAD,2024-06-03 04:01:25,14.98325002,0.0003153,69.9992,329.4923,275.0825,84.9974,-2.947e-05,-4.45e-06,0.0,0 STARLINK-5987,1 56455U 23064H   24155.16766036 -.00000445  00000-0 -29470-4 0  9993,2 56455  69.9992 329.4923 0003153 275.0825  84.9974 14.98325002 59069,6950.208,96.107,574.265,569.882,0.0
56455.0,STARLINK-5987,PAYLOAD,2024-06-03 12:02:05,14.98326315,0.0003414,69.9985,328.651,268.8751,91.2017,9.5799e-05,1.05e-05,0.0,0 STARLINK-5987,1 56455U 23064H   24155.50145707  .00001050  00000-0  95799-4 0  9995,2 56455  69.9985 328.6510 0003414 268.8751  91.2017 14.98326315 58754,6950.204,96.107,574.442,569.696,0.0
56455.0,STARLINK-5987,PAYLOAD,2024-06-03 20:02:45,14.98332992,0.0003412,69.9985,327.8096,269.5597,90.5171,0.00012922,1.449e-05,0.0,0 STARLINK-5987,1 56455U 23064H   24155.83525326  .00001449  00000-0  12922-3 0  9998,2 56455  69.9985 327.8096 0003412 269.5597  90.5171 14.98332992 59165,6950.184,96.107,574.42,569.677,0.0
56455.0,STARLINK-5987,PAYLOAD,2024-06-03 21:38:53,14.98334619,0.0003417,69.9985,327.6413,269.5758,90.5009,0.00015095,1.709e-05,0.0,0 STARLINK-5987,1 56455U 23064H   24155.90201220  .00001709  00000-0  15095-3 0  9993,2 56455  69.9985 327.6413 0003417 269.5758  90.5009 14.98334619 58819,6950.179,96.107,574.418,569.669,0.0
56455.0,STARLINK-5987,PAYLOAD,2024-06-04 10:27:58,14.98334671,0.0003396,69.9988,326.2933,269.1484,90.9286,5.0558e-05,5.1e-06,0.0,0 STARLINK-5987,1 56455U 23064H   24156.43609442  .00000510  00000-0  50558-4 0  9993,2 56455  69.9988 326.2933 0003396 269.1484  90.9286 14.98334671 58899,6950.178,96.107,574.404,569.683,0.0
56455.0,STARLINK-5987,PAYLOAD,2024-06-04 21:40:54,14.98342516,0.0003468,69.9983,325.1156,268.3595,91.7167,9.5462e-05,1.047e-05,0.0,0 STARLINK-5987,1 56455U 23064H   24156.90340662  .00001047  00000-0  95462-4 0  9990,2 56455  69.9983 325.1156 0003468 268.3595  91.7167 14.98342516 58965,6950.154,96.106,574.429,569.609,0.0
56455.0,STARLINK-5987,PAYLOAD,2024-06-05 04:05:26,14.98341636,0.0003377,69.9986,324.4417,270.9632,89.1141,3.5137e-05,3.26e-06,0.0,0 STARLINK-5987,1 56455U 23064H   24157.17044748  .00000326  00000-0  35137-4 0  9998,2 56455  69.9986 324.4417 0003377 270.9632  89.1141 14.98341636 59360,6950.157,96.106,574.369,569.675,0.0
56455.0,STARLINK-5987,PAYLOAD,2024-06-05 12:06:07,14.98331351,0.0003202,69.9969,323.6007,279.0397,81.0399,-3.9399e-05,-5.63e-06,0.0,0 STARLINK-5987,1 56455U 23064H   24157.50425593 -.00000563  00000-0 -39399-4 0  9995,2 56455  69.9969 323.6007 0003202 279.0397  81.0399 14.98331351 59417,6950.189,96.107,574.279,569.828,0.0
56455.0,STARLINK-5987,PAYLOAD,2024-06-05 16:54:31,14.9832948,0.0003044,69.9986,323.0964,269.4221,90.659,7.491e-05,8.01e-06,0.0,0 STARLINK-5987,1 56455U 23064H   24157.70453535  .00000801  00000-0  74910-4 0  9995,2 56455  69.9986 323.0964 0003044 269.4221  90.6590 14.98329480 59087,6950.194,96.107,574.175,569.944,0.0
56455.0,STARLINK-5987,PAYLOAD,2024-06-06 12:08:08,14.98332575,0.0003094,69.9986,321.0766,269.9005,90.18,0.00016855,1.919e-05,0.0,0 STARLINK-5987,1 56455U 23064H   24158.50565235  .00001919  00000-0  16855-3 0  9999,2 56455  69.9986 321.0766 0003094 269.9005  90.1800 14.98332575 59566,6950.185,96.107,574.2,569.9,0.0
56455.0,STARLINK-5987,PAYLOAD,2024-06-06 16:56:32,14.9833657,0.0003003,69.999,320.5717,267.6092,92.4723,9.7965e-05,1.076e-05,0.0,0 STARLINK-5987,1 56455U 23064H   24158.70593056  .00001076  00000-0  97965-4 0  9999,2 56455  69.9990 320.5717 0003003 267.6092  92.4723 14.98336570 59234,6950.173,96.107,574.125,569.95,0.0
56455.0,STARLINK-5987,PAYLOAD,2024-06-07 20:10:49,14.98332602,0.0003196,69.9999,317.71,267.6627,92.4166,0.00015933,1.809e-05,0.0,0 STARLINK-5987,1 56455U 23064H   24159.84085275  .00001809  00000-0  15933-3 0  9992,2 56455  69.9999 317.7100 0003196 267.6627  92.4166 14.98332602 59765,6950.185,96.107,574.271,569.829,0.0
56455.0,STARLINK-5987,PAYLOAD,2024-06-08 12:12:10,14.98332865,0.0003116,69.9973,316.0255,268.2123,91.8679,6.9298e-05,7.34e-06,0.0,0 STARLINK-5987,1 56455U 23064H   24160.50845341  .00000734  00000-0  69298-4 0  9995,2 56455  69.9973 316.0255 0003116 268.2123  91.8679 14.98332865 59505,6950.184,96.107,574.215,569.883,0.0
56455.0,STARLINK-5987,PAYLOAD,2024-06-08 20:12:50,14.98336143,0.0003077,69.9977,315.1846,269.9207,90.1599,7.6169e-05,8.16e-06,0.0,0 STARLINK-5987,1 56455U 23064H   24160.84225047  .00000816  00000-0  76169-4 0  9993,2 56455  69.9977 315.1846 0003077 269.9207  90.1599 14.98336143 59913,6950.174,96.107,574.177,569.9,0.0
56455.0,STARLINK-5987,PAYLOAD,2024-06-09 12:14:11,14.98325695,0.0002587,69.9988,313.5008,265.7826,94.3038,0.00011441,1.272e-05,0.0,0 STARLINK-5987,1 56455U 23064H   24161.50985674  .00001272  00000-0  11441-3 0  9994,2 56455  69.9988 313.5008 0002587 265.7826  94.3038 14.98325695 60010,6950.206,96.107,573.869,570.273,0.0
56455.0,STARLINK-5987,PAYLOAD,2024-06-09 20:14:51,14.98330989,0.0003072,69.9987,312.6591,269.8726,90.2081,7.3416e-05,7.83e-06,0.0,0 STARLINK-5987,1 56455U 23064H   24161.84365411  .00000783  00000-0  73416-4 0  9999,2 56455  69.9987 312.6591 0003072 269.8726  90.2081 14.98330989 59709,6950.19,96.107,574.19,569.92,0.0
56455.0,STARLINK-5987,PAYLOAD,2024-06-10 12:16:12,14.98334104,0.0003026,69.9995,310.9761,269.9439,90.1373,8.877e-05,9.66e-06,0.0,0 STARLINK-5987,1 56455U 23064H   24162.51125141  .00000966  00000-0  88770-4 0  9990,2 56455  69.9995 310.9761 0003026 269.9439  90.1373 14.98334104 60167,6950.18,96.107,574.148,569.942,0.0
56455.0,STARLINK-5987,PAYLOAD,2024-06-10 13:52:20,14.98334347,0.0003053,69.9997,310.8078,270.0121,90.0688,0.00010922,1.211e-05,0.0,0 STARLINK-5987,1 56455U 23064H   24162.57801077  .00001211  00000-0  10922-3 0  9992,2 56455  69.9997 310.8078 0003053 270.0121  90.0688 14.98334347 59817,6950.179,96.107,574.166,569.923,0.0
